{
  "type": "FeatureCollection",
  "features": [
    {
      "type": "Feature",
      "properties": {
        "norad_id": 43567,
        "name": "GSAT0220 (GALILEO 24)",
        "group": "gnss",
        "lat": 38.44593391010369,
        "lon": 135.9953811017887,
        "alt_km": 23233.480740538434,
        "timestamp": "2025-12-15T04:01:20.696336+00:00",
        "meta_object_name": "GSAT0220 (GALILEO 24)",
        "meta_object_id": "2018-060D",
        "meta_epoch": "2025-12-13T18:41:25.404000",
        "meta_mean_motion": 1.70475925,
        "meta_eccentricity": 0.00061008,
        "meta_inclination": 57.2299,
        "meta_ra_of_asc_node": 346.7937,
        "meta_arg_of_pericenter": 285.541,
        "meta_mean_anomaly": 74.4106,
        "meta_ephemeris_type": 0,
        "meta_classification_type": "U",
        "meta_norad_cat_id": 43567,
        "meta_element_set_no": 999,
        "meta_rev_at_epoch": 4601,
        "meta_bstar": 0,
        "meta_mean_motion_dot": -8.5e-07,
        "meta_mean_motion_ddot": 0,
        "tle_line1": "1 43567U 18060D   25347.77876625 -.00000085  00000+0  00000+0 0  9991",
        "tle_line2": "2 43567  57.2299 346.7937 0006100 285.5410  74.4106  1.70475925 46015"
      },
      "geometry": {
        "type": "Point",
        "coordinates": [
          135.9953811017887,
          38.44593391010369
        ]
      }
    },
    {
      "type": "Feature",
      "properties": {
        "norad_id": 43581,
        "name": "BEIDOU-3 M5 (C23)",
        "group": "gnss",
        "lat": 17.29933507525715,
        "lon": -4.4795750509093875,
        "alt_km": 21531.878970778715,
        "timestamp": "2025-12-15T04:01:20.696359+00:00",
        "meta_object_name": "BEIDOU-3 M5 (C23)",
        "meta_object_id": "2018-062A",
        "meta_epoch": "2025-12-12T05:55:01.607232",
        "meta_mean_motion": 1.86228672,
        "meta_eccentricity": 0.00021016,
        "meta_inclination": 54.0891,
        "meta_ra_of_asc_node": 188.6597,
        "meta_arg_of_pericenter": 354.1416,
        "meta_mean_anomaly": 5.9159,
        "meta_ephemeris_type": 0,
        "meta_classification_type": "U",
        "meta_norad_cat_id": 43581,
        "meta_element_set_no": 999,
        "meta_rev_at_epoch": 5015,
        "meta_bstar": 0,
        "meta_mean_motion_dot": 7.9e-07,
        "meta_mean_motion_ddot": 0,
        "tle_line1": "1 43581U 18062A   25346.24654638  .00000079  00000+0  00000+0 0  9990",
        "tle_line2": "2 43581  54.0891 188.6597 0002101 354.1416   5.9159  1.86228672 50154"
      },
      "geometry": {
        "type": "Point",
        "coordinates": [
          -4.4795750509093875,
          17.29933507525715
        ]
      }
    },
    {
      "type": "Feature",
      "properties": {
        "norad_id": 43582,
        "name": "BEIDOU-3 M6 (C24)",
        "group": "gnss",
        "lat": -49.656594703025085,
        "lon": 67.13391023143433,
        "alt_km": 21553.9859383356,
        "timestamp": "2025-12-15T04:01:20.696376+00:00",
        "meta_object_name": "BEIDOU-3 M6 (C24)",
        "meta_object_id": "2018-062B",
        "meta_epoch": "2025-12-13T04:24:17.587296",
        "meta_mean_motion": 1.86229795,
        "meta_eccentricity": 0.00078891,
        "meta_inclination": 54.0888,
        "meta_ra_of_asc_node": 188.6169,
        "meta_arg_of_pericenter": 47.4004,
        "meta_mean_anomaly": 312.7289,
        "meta_ephemeris_type": 0,
        "meta_classification_type": "U",
        "meta_norad_cat_id": 43582,
        "meta_element_set_no": 999,
        "meta_rev_at_epoch": 5017,
        "meta_bstar": 0,
        "meta_mean_motion_dot": 9.2e-07,
        "meta_mean_motion_ddot": 0,
        "tle_line1": "1 43582U 18062B   25347.18353689  .00000092  00000+0  00000+0 0  9992",
        "tle_line2": "2 43582  54.0888 188.6169 0007889  47.4004 312.7289  1.86229795 50171"
      },
      "geometry": {
        "type": "Point",
        "coordinates": [
          67.13391023143433,
          -49.656594703025085
        ]
      }
    },
    {
      "type": "Feature",
      "properties": {
        "norad_id": 43602,
        "name": "BEIDOU-3 M12 (C26)",
        "group": "gnss",
        "lat": -48.79441690728868,
        "lon": 131.7054939815675,
        "alt_km": 21542.270543888364,
        "timestamp": "2025-12-15T04:01:20.696396+00:00",
        "meta_object_name": "BEIDOU-3 M12 (C26)",
        "meta_object_id": "2018-067A",
        "meta_epoch": "2025-12-13T02:54:46.196064",
        "meta_mean_motion": 1.8622768,
        "meta_eccentricity": 0.00091748,
        "meta_inclination": 54.1833,
        "meta_ra_of_asc_node": 187.3503,
        "meta_arg_of_pericenter": 41.0824,
        "meta_mean_anomaly": 319.0476,
        "meta_ephemeris_type": 0,
        "meta_classification_type": "U",
        "meta_norad_cat_id": 43602,
        "meta_element_set_no": 999,
        "meta_rev_at_epoch": 4965,
        "meta_bstar": 0,
        "meta_mean_motion_dot": 9.3e-07,
        "meta_mean_motion_ddot": 0,
        "tle_line1": "1 43602U 18067A   25347.12136801  .00000093  00000+0  00000+0 0  9990",
        "tle_line2": "2 43602  54.1833 187.3503 0009174  41.0824 319.0476  1.86227680 49652"
      },
      "geometry": {
        "type": "Point",
        "coordinates": [
          131.7054939815675,
          -48.79441690728868
        ]
      }
    },
    {
      "type": "Feature",
      "properties": {
        "norad_id": 43603,
        "name": "BEIDOU-3 M11 (C25)",
        "group": "gnss",
        "lat": -17.515243610605847,
        "lon": 20.429077907357172,
        "alt_km": 21545.896494432956,
        "timestamp": "2025-12-15T04:01:20.696414+00:00",
        "meta_object_name": "BEIDOU-3 M11 (C25)",
        "meta_object_id": "2018-067B",
        "meta_epoch": "2025-12-13T06:08:27.943008",
        "meta_mean_motion": 1.86227177,
        "meta_eccentricity": 0.00055759,
        "meta_inclination": 54.1803,
        "meta_ra_of_asc_node": 187.3097,
        "meta_arg_of_pericenter": 36.863,
        "meta_mean_anomaly": 323.2366,
        "meta_ephemeris_type": 0,
        "meta_classification_type": "U",
        "meta_norad_cat_id": 43603,
        "meta_element_set_no": 999,
        "meta_rev_at_epoch": 4968,
        "meta_bstar": 0,
        "meta_mean_motion_dot": 9.5e-07,
        "meta_mean_motion_ddot": 0,
        "tle_line1": "1 43603U 18067B   25347.25587897  .00000095  00000+0  00000+0 0  9992",
        "tle_line2": "2 43603  54.1803 187.3097 0005575  36.8630 323.2366  1.86227177 49685"
      },
      "geometry": {
        "type": "Point",
        "coordinates": [
          20.429077907357172,
          -17.515243610605847
        ]
      }
    },
    {
      "type": "Feature",
      "properties": {
        "norad_id": 43622,
        "name": "BEIDOU-3 M13 (C32)",
        "group": "gnss",
        "lat": -40.243780508608616,
        "lon": -77.15655675019799,
        "alt_km": 21526.817797864394,
        "timestamp": "2025-12-15T04:01:20.696431+00:00",
        "meta_object_name": "BEIDOU-3 M13 (C32)",
        "meta_object_id": "2018-072A",
        "meta_epoch": "2025-12-12T16:12:36.163584",
        "meta_mean_motion": 1.8623072,
        "meta_eccentricity": 0.0005872,
        "meta_inclination": 56.4592,
        "meta_ra_of_asc_node": 68.8222,
        "meta_arg_of_pericenter": 298.9421,
        "meta_mean_anomaly": 61.0187,
        "meta_ephemeris_type": 0,
        "meta_classification_type": "U",
        "meta_norad_cat_id": 43622,
        "meta_element_set_no": 999,
        "meta_rev_at_epoch": 4918,
        "meta_bstar": 0,
        "meta_mean_motion_dot": -7.4e-07,
        "meta_mean_motion_ddot": 0,
        "tle_line1": "1 43622U 18072A   25346.67541856 -.00000074  00000+0  00000+0 0  9997",
        "tle_line2": "2 43622  56.4592  68.8222 0005872 298.9421  61.0187  1.86230720 49189"
      },
      "geometry": {
        "type": "Point",
        "coordinates": [
          -77.15655675019799,
          -40.243780508608616
        ]
      }
    },
    {
      "type": "Feature",
      "properties": {
        "norad_id": 43623,
        "name": "BEIDOU-3 M14 (C33)",
        "group": "gnss",
        "lat": -31.607277000349747,
        "lon": 44.69025490225386,
        "alt_km": 21523.212153051492,
        "timestamp": "2025-12-15T04:01:20.696449+00:00",
        "meta_object_name": "BEIDOU-3 M14 (C33)",
        "meta_object_id": "2018-072B",
        "meta_epoch": "2025-12-12T00:05:39.634080",
        "meta_mean_motion": 1.86230719,
        "meta_eccentricity": 0.00032787,
        "meta_inclination": 56.4604,
        "meta_ra_of_asc_node": 68.8385,
        "meta_arg_of_pericenter": 334.6213,
        "meta_mean_anomaly": 25.3832,
        "meta_ephemeris_type": 0,
        "meta_classification_type": "U",
        "meta_norad_cat_id": 43623,
        "meta_element_set_no": 999,
        "meta_rev_at_epoch": 4916,
        "meta_bstar": 0,
        "meta_mean_motion_dot": -6.8e-07,
        "meta_mean_motion_ddot": 0,
        "tle_line1": "1 43623U 18072B   25346.00393095 -.00000068  00000+0  00000+0 0  9998",
        "tle_line2": "2 43623  56.4604  68.8385 0003278 334.6213  25.3832  1.86230719 49165"
      },
      "geometry": {
        "type": "Point",
        "coordinates": [
          44.69025490225386,
          -31.607277000349747
        ]
      }
    }
  ]
}